[
  {
    "COMMENT": "GENERATED VIA SPACETRACK.ORG API",
    "ORIGINATOR": "18 SPCS",
    "NORAD_CAT_ID": "46469",
    "OBJECT_NAME": "HAIYANG 2C",
    "OBJECT_TYPE": "PAYLOAD",
    "CLASSIFICATION_TYPE": "U",
    "INTLDES": "20066A",
    "EPOCH": "2023-07-01 08:19:27",
    "EPOCH_MICROSECONDS": "521184",
    "MEAN_MOTION": "13.83373435",
    "ECCENTRICITY": "0.0010184",
    "INCLINATION": "65.9971",
    "RA_OF_ASC_NODE": "28.8283",
    "ARG_OF_PERICENTER": "298.9701",
    "MEAN_ANOMALY": "61.0346",
    "EPHEMERIS_TYPE": "0",
    "ELEMENT_SET_NO": "999",
    "REV_AT_EPOCH": "14014",
    "BSTAR": "0.000049289",
    "MEAN_MOTION_DOT": "-0.00000027",
    "MEAN_MOTION_DDOT": "0",
    "FILE": "3946758",
    "TLE_LINE0": "0 HAIYANG 2C",
    "TLE_LINE1": "1 46469U 20066A   23182.34684631 -.00000027  00000-0  49289-4 0  9990",
    "TLE_LINE2": "2 46469  65.9971  28.8283 0010184 298.9701  61.0346 13.83373435140149",
    "OBJECT_ID": "2020-066A",
    "OBJECT_NUMBER": "46469",
    "SEMIMAJOR_AXIS": "7330.083",
    "PERIOD": "104.093",
    "APOGEE": "959.413",
    "PERIGEE": "944.483",
    "DECAYED": "0"
  },
  {
    "COMMENT": "GENERATED VIA SPACETRACK.ORG API",
    "ORIGINATOR": "18 SPCS",
    "NORAD_CAT_ID": "46469",
    "OBJECT_NAME": "HAIYANG 2C",
    "OBJECT_TYPE": "PAYLOAD",
    "CLASSIFICATION_TYPE": "U",
    "INTLDES": "20066A",
    "EPOCH": "2023-07-01 18:44:05",
    "EPOCH_MICROSECONDS": "135136",
    "MEAN_MOTION": "13.83373491",
    "ECCENTRICITY": "0.0010197",
    "INCLINATION": "65.9971",
    "RA_OF_ASC_NODE": "27.7482",
    "ARG_OF_PERICENTER": "298.8825",
    "MEAN_ANOMALY": "61.122",
    "EPHEMERIS_TYPE": "0",
    "ELEMENT_SET_NO": "999",
    "REV_AT_EPOCH": "14020",
    "BSTAR": "0.000051243",
    "MEAN_MOTION_DOT": "-0.00000025",
    "MEAN_MOTION_DDOT": "0",
    "FILE": "3947029",
    "TLE_LINE0": "0 HAIYANG 2C",
    "TLE_LINE1": "1 46469U 20066A   23182.78061499 -.00000025  00000-0  51243-4 0  9990",
    "TLE_LINE2": "2 46469  65.9971  27.7482 0010197 298.8825  61.1220 13.83373491140209",
    "OBJECT_ID": "2020-066A",
    "OBJECT_NUMBER": "46469",
    "SEMIMAJOR_AXIS": "7330.083",
    "PERIOD": "104.093",
    "APOGEE": "959.422",
    "PERIGEE": "944.473",
    "DECAYED": "0"
  },
  {
    "COMMENT": "GENERATED VIA SPACETRACK.ORG API",
    "ORIGINATOR": "18 SPCS",
    "NORAD_CAT_ID": "46469",
    "OBJECT_NAME": "HAIYANG 2C",
    "OBJECT_TYPE": "PAYLOAD",
    "CLASSIFICATION_TYPE": "U",
    "INTLDES": "20066A",
    "EPOCH": "2023-07-02 01:40:30",
    "EPOCH_MICROSECONDS": "212832",
    "MEAN_MOTION": "13.83373529",
    "ECCENTRICITY": "0.0010212",
    "INCLINATION": "65.9971",
    "RA_OF_ASC_NODE": "27.0282",
    "ARG_OF_PERICENTER": "298.912",
    "MEAN_ANOMALY": "61.0923",
    "EPHEMERIS_TYPE": "0",
    "ELEMENT_SET_NO": "999",
    "REV_AT_EPOCH": "14024",
    "BSTAR": "0.000054629",
    "MEAN_MOTION_DOT": "-0.00000021",
    "MEAN_MOTION_DDOT": "0",
    "FILE": "3947297",
    "TLE_LINE0": "0 HAIYANG 2C",
    "TLE_LINE1": "1 46469U 20066A   23183.06979413 -.00000021  00000-0  54629-4 0  9993",
    "TLE_LINE2": "2 46469  65.9971  27.0282 0010212 298.9120  61.0923 13.83373529140242",
    "OBJECT_ID": "2020-066A",
    "OBJECT_NUMBER": "46469",
    "SEMIMAJOR_AXIS": "7330.083",
    "PERIOD": "104.093",
    "APOGEE": "959.433",
    "PERIGEE": "944.462",
    "DECAYED": "0"
  },
  {
    "COMMENT": "GENERATED VIA SPACETRACK.ORG API",
    "ORIGINATOR": "18 SPCS",
    "NORAD_CAT_ID": "46469",
    "OBJECT_NAME": "HAIYANG 2C",
    "OBJECT_TYPE": "PAYLOAD",
    "CLASSIFICATION_TYPE": "U",
    "INTLDES": "20066A",
    "EPOCH": "2023-07-02 10:21:01",
    "EPOCH_MICROSECONDS": "558656",
    "MEAN_MOTION": "13.83373545",
    "ECCENTRICITY": "0.0010229",
    "INCLINATION": "65.9971",
    "RA_OF_ASC_NODE": "26.1282",
    "ARG_OF_PERICENTER": "298.8888",
    "MEAN_ANOMALY": "61.1153",
    "EPHEMERIS_TYPE": "0",
    "ELEMENT_SET_NO": "999",
    "REV_AT_EPOCH": "14029",
    "BSTAR": "0.000046979",
    "MEAN_MOTION_DOT": "-0.0000003",
    "MEAN_MOTION_DDOT": "0",
    "FILE": "3947558",
    "TLE_LINE0": "0 HAIYANG 2C",
    "TLE_LINE1": "1 46469U 20066A   23183.43126804 -.00000030  00000-0  46979-4 0  9991",
    "TLE_LINE2": "2 46469  65.9971  26.1282 0010229 298.8888  61.1153 13.83373545140299",
    "OBJECT_ID": "2020-066A",
    "OBJECT_NUMBER": "46469",
    "SEMIMAJOR_AXIS": "7330.083",
    "PERIOD": "104.093",
    "APOGEE": "959.445",
    "PERIGEE": "944.450",
    "DECAYED": "0"
  },
  {
    "COMMENT": "GENERATED VIA SPACETRACK.ORG API",
    "ORIGINATOR": "18 SPCS",
    "NORAD_CAT_ID": "46469",
    "OBJECT_NAME": "HAIYANG 2C",
    "OBJECT_TYPE": "PAYLOAD",
    "CLASSIFICATION_TYPE": "U",
    "INTLDES": "20066A",
    "EPOCH": "2023-07-02 15:33:20",
    "EPOCH_MICROSECONDS": "362176",
    "MEAN_MOTION": "13.83373563",
    "ECCENTRICITY": "0.0010233",
    "INCLINATION": "65.997",
    "RA_OF_ASC_NODE": "25.5882",
    "ARG_OF_PERICENTER": "298.8442",
    "MEAN_ANOMALY": "61.1599",
    "EPHEMERIS_TYPE": "0",
    "ELEMENT_SET_NO": "999",
    "REV_AT_EPOCH": "14032",
    "BSTAR": "0.00004106",
    "MEAN_MOTION_DOT": "-0.00000036",
    "MEAN_MOTION_DDOT": "0",
    "FILE": "3947818",
    "TLE_LINE0": "0 HAIYANG 2C",
    "TLE_LINE1": "1 46469U 20066A   23183.64815234 -.00000036  00000-0  41060-4 0  9998",
    "TLE_LINE2": "2 46469  65.9970  25.5882 0010233 298.8442  61.1599 13.83373563140326",
    "OBJECT_ID": "2020-066A",
    "OBJECT_NUMBER": "46469",
    "SEMIMAJOR_AXIS": "7330.082",
    "PERIOD": "104.093",
    "APOGEE": "959.448",
    "PERIGEE": "944.447",
    "DECAYED": "0"
  },
  {
    "COMMENT": "GENERATED VIA SPACETRACK.ORG API",
    "ORIGINATOR": "18 SPCS",
    "NORAD_CAT_ID": "46469",
    "OBJECT_NAME": "HAIYANG 2C",
    "OBJECT_TYPE": "PAYLOAD",
    "CLASSIFICATION_TYPE": "U",
    "INTLDES": "20066A",
    "EPOCH": "2023-07-03 01:57:57",
    "EPOCH_MICROSECONDS": "973536",
    "MEAN_MOTION": "13.83373635",
    "ECCENTRICITY": "0.0010253",
    "INCLINATION": "65.9971",
    "RA_OF_ASC_NODE": "24.5082",
    "ARG_OF_PERICENTER": "298.7979",
    "MEAN_ANOMALY": "61.2059",
    "EPHEMERIS_TYPE": "0",
    "ELEMENT_SET_NO": "999",
    "REV_AT_EPOCH": "14038",
    "BSTAR": "0.000049846",
    "MEAN_MOTION_DOT": "-0.00000026",
    "MEAN_MOTION_DDOT": "0",
    "FILE": "3948030",
    "TLE_LINE0": "0 HAIYANG 2C",
    "TLE_LINE1": "1 46469U 20066A   23184.08192099 -.00000026  00000-0  49846-4 0  9993",
    "TLE_LINE2": "2 46469  65.9971  24.5082 0010253 298.7979  61.2059 13.83373635140382",
    "OBJECT_ID": "2020-066A",
    "OBJECT_NUMBER": "46469",
    "SEMIMAJOR_AXIS": "7330.082",
    "PERIOD": "104.093",
    "APOGEE": "959.463",
    "PERIGEE": "944.432",
    "DECAYED": "0"
  },
  {
    "COMMENT": "GENERATED VIA SPACETRACK.ORG API",
    "ORIGINATOR": "18 SPCS",
    "NORAD_CAT_ID": "46469",
    "OBJECT_NAME": "HAIYANG 2C",
    "OBJECT_TYPE": "PAYLOAD",
    "CLASSIFICATION_TYPE": "U",
    "INTLDES": "20066A",
    "EPOCH": "2023-07-03 12:22:35",
    "EPOCH_MICROSECONDS": "584032",
    "MEAN_MOTION": "13.83373676",
    "ECCENTRICITY": "0.0010265",
    "INCLINATION": "65.9971",
    "RA_OF_ASC_NODE": "23.4282",
    "ARG_OF_PERICENTER": "298.7309",
    "MEAN_ANOMALY": "61.2727",
    "EPHEMERIS_TYPE": "0",
    "ELEMENT_SET_NO": "999",
    "REV_AT_EPOCH": "14044",
    "BSTAR": "0.000045233",
    "MEAN_MOTION_DOT": "-0.00000031",
    "MEAN_MOTION_DDOT": "0",
    "FILE": "3948353",
    "TLE_LINE0": "0 HAIYANG 2C",
    "TLE_LINE1": "1 46469U 20066A   23184.51568963 -.00000031  00000-0  45233-4 0  9990",
    "TLE_LINE2": "2 46469  65.9971  23.4282 0010265 298.7309  61.2727 13.83373676140446",
    "OBJECT_ID": "2020-066A",
    "OBJECT_NUMBER": "46469",
    "SEMIMAJOR_AXIS": "7330.082",
    "PERIOD": "104.093",
    "APOGEE": "959.471",
    "PERIGEE": "944.423",
    "DECAYED": "0"
  },
  {
    "COMMENT": "GENERATED VIA SPACETRACK.ORG API",
    "ORIGINATOR": "18 SPCS",
    "NORAD_CAT_ID": "46469",
    "OBJECT_NAME": "HAIYANG 2C",
    "OBJECT_TYPE": "PAYLOAD",
    "CLASSIFICATION_TYPE": "U",
    "INTLDES": "20066A",
    "EPOCH": "2023-07-03 17:34:54",
    "EPOCH_MICROSECONDS": "386688",
    "MEAN_MOTION": "13.83373688",
    "ECCENTRICITY": "0.0010273",
    "INCLINATION": "65.9971",
    "RA_OF_ASC_NODE": "22.8881",
    "ARG_OF_PERICENTER": "298.6731",
    "MEAN_ANOMALY": "61.3304",
    "EPHEMERIS_TYPE": "0",
    "ELEMENT_SET_NO": "999",
    "REV_AT_EPOCH": "14047",
    "BSTAR": "0.00004322",
    "MEAN_MOTION_DOT": "-0.00000034",
    "MEAN_MOTION_DDOT": "0",
    "FILE": "3948743",
    "TLE_LINE0": "0 HAIYANG 2C",
    "TLE_LINE1": "1 46469U 20066A   23184.73257392 -.00000034  00000-0  43220-4 0  9992",
    "TLE_LINE2": "2 46469  65.9971  22.8881 0010273 298.6731  61.3304 13.83373688140479",
    "OBJECT_ID": "2020-066A",
    "OBJECT_NUMBER": "46469",
    "SEMIMAJOR_AXIS": "7330.082",
    "PERIOD": "104.093",
    "APOGEE": "959.477",
    "PERIGEE": "944.417",
    "DECAYED": "0"
  }
]